{"fetched_at":"2026-07-14T17:41:04.817Z","source":"https://celestrak.org/NORAD/elements/gp.php?NAME=SENTINEL&FORMAT=JSON","constellation":"sentinel-3","records":[{"OBJECT_NAME":"SENTINEL-3A","OBJECT_ID":"2016-011A","EPOCH":"2026-07-14T03:30:51.590016","CLASSIFICATION_TYPE":"U","MEAN_MOTION":14.26739598,"ECCENTRICITY":0.0001367,"INCLINATION":98.6238,"RA_OF_ASC_NODE":262.1412,"ARG_OF_PERICENTER":90.4375,"MEAN_ANOMALY":269.6962,"EPHEMERIS_TYPE":0,"NORAD_CAT_ID":41335,"ELEMENT_SET_NO":999,"REV_AT_EPOCH":54190,"BSTAR":0.000037261,"MEAN_MOTION_DOT":4.7e-7,"MEAN_MOTION_DDOT":0},{"OBJECT_NAME":"SENTINEL-3B","OBJECT_ID":"2018-039A","EPOCH":"2026-07-14T04:33:09.982368","CLASSIFICATION_TYPE":"U","MEAN_MOTION":14.26735982,"ECCENTRICITY":0.0001118,"INCLINATION":98.6237,"RA_OF_ASC_NODE":262.3328,"ARG_OF_PERICENTER":120.3569,"MEAN_ANOMALY":239.7722,"EPHEMERIS_TYPE":0,"NORAD_CAT_ID":43437,"ELEMENT_SET_NO":999,"REV_AT_EPOCH":42797,"BSTAR":0.000016586,"MEAN_MOTION_DOT":-4e-8,"MEAN_MOTION_DDOT":0}]}
