SENTINEL-3A             
1 41335U 16011A   26195.14643044  .00000047  00000+0  37261-4 0  9997
2 41335  98.6238 262.1412 0001367  90.4375 269.6962 14.26739598541900
SENTINEL-3B             
1 43437U 18039A   26195.18969887 -.00000004  00000+0  16586-4 0  9995
2 43437  98.6237 262.3328 0001118 120.3569 239.7722 14.26735982427979
